1  8820U 76039A   03049.72972335 +.00000006 +00000-0 +10000-3 0  9997
2  8820 109.8290 141.0441 0044258 326.7434 033.0520 06.38664565369499
